CTC1_L_00316016-03
1 24609U 24555DC  26070.40835648  .00000000  00000+0  00000-0 0  9994
2 24609  75.0000 180.0000 0000000   0.0000   0.0000 14.60983543    18
CTC1_L_00316016-04
1 24610U 23867OY  26070.40835648  .00000000  00000+0  00000-0 0  9991
2 24610  75.0000 180.0000 0000000   0.0000  90.0000 14.60983543    19
CTC1_L_00316017-01
1 24611U 24450PS  26070.40835648  .00000000  00000+0  00000-0 0  9991
2 24611  75.0000 192.0000 0000000   0.0000 192.0000 14.60983543    16
CTC1_L_00316017-02
1 24612U 23419QS  26070.40835648  .00000000  00000+0  00000-0 0  9996
2 24612  75.0000 192.0000 0000000   0.0000 282.0000 14.60983543    17
CTC1_L_00316017-03
1 24613U 23494HM  26070.40835648  .00000000  00000+0  00000-0 0  9990
2 24613  75.0000 192.0000 0000000   0.0000  12.0000 14.60983543    19
CTC1_L_00316017-04
1 24614U 23026HW  26070.40835648  .00000000  00000+0  00000-0 0  9992
2 24614  75.0000 192.0000 0000000   0.0000 102.0000 14.60983543    10
CTC1_L_00316018-01
1 24615U 22300LR  26070.40835648  .00000000  00000+0  00000-0 0  9997
2 24615  75.0000 204.0000 0000000   0.0000 204.0000 14.60983543    18
CTC1_L_00316018-02
1 24616U 22247RT  26070.40835648  .00000000  00000+0  00000-0 0  9998
2 24616  75.0000 204.0000 0000000   0.0000 294.0000 14.60983543    18
CTC1_L_00316018-03
1 24617U 24388VG  26070.40835648  .00000000  00000+0  00000-0 0  9997
2 24617  75.0000 204.0000 0000000   0.0000  24.0000 14.60983543    10
CTC1_L_00316018-04
1 24618U 23528TW  26070.40835648  .00000000  00000+0  00000-0 0  9993
2 24618  75.0000 204.0000 0000000   0.0000 114.0000 14.60983543    11
CTC1_L_00316019-01
1 24619U 23904EI  26070.40835648  .00000000  00000+0  00000-0 0  9992
2 24619  75.0000 216.0000 0000000   0.0000 216.0000 14.60983543    18
CTC1_L_00316019-02
1 24620U 26826ID  26070.40835648  .00000000  00000+0  00000-0 0  9990
2 24620  75.0000 216.0000 0000000   0.0000 306.0000 14.60983543    10
CTC1_L_00316019-03
1 24621U 22046SO  26070.40835648  .00000000  00000+0  00000-0 0  9991
2 24621  75.0000 216.0000 0000000   0.0000  36.0000 14.60983543    11
CTC1_L_00316019-04
1 24622U 25237OH  26070.40835648  .00000000  00000+0  00000-0 0  9997
2 24622  75.0000 216.0000 0000000   0.0000 126.0000 14.60983543    12
CTC1_L_00316020-01
1 24623U 23638GI  26070.40835648  .00000000  00000+0  00000-0 0  9991
2 24623  75.0000 228.0000 0000000   0.0000 228.0000 14.60983543    19
CTC1_L_00316020-02
1 24624U 24893KZ  26070.40835648  .00000000  00000+0  00000-0 0  9996
2 24624  75.0000 228.0000 0000000   0.0000 318.0000 14.60983543    10
CTC1_L_00316020-03
1 24625U 25402FH  26070.40835648  .00000000  00000+0  00000-0 0  9994
2 24625  75.0000 228.0000 0000000   0.0000  48.0000 14.60983543    11
CTC1_L_00316020-04
1 24626U 26475U   26070.40835648  .00000000  00000+0  00000-0 0  9996
2 24626  75.0000 228.0000 0000000   0.0000 138.0000 14.60983543    12
CTC1_L_00316021-01
1 24627U 22737DX  26070.40835648  .00000000  00000+0  00000-0 0  9994
2 24627  75.0000 240.0000 0000000   0.0000 240.0000 14.60983543    11
CTC1_L_00316021-02
1 24628U 26370SW  26070.40835648  .00000000  00000+0  00000-0 0  9992
2 24628  75.0000 240.0000 0000000   0.0000 330.0000 14.60983543    12
CTC1_L_00316021-03
1 24629U 25912VQ  26070.40835648  .00000000  00000+0  00000-0 0  9994
2 24629  75.0000 240.0000 0000000   0.0000  60.0000 14.60983543    13
CTC1_L_00316021-04
1 24630U 22226GB  26070.40835648  .00000000  00000+0  00000-0 0  9991
2 24630  75.0000 240.0000 0000000   0.0000 150.0000 14.60983543    15
CTC1_L_00316022-01
1 24631U 25934VK  26070.40835648  .00000000  00000+0  00000-0 0  9991
2 24631  75.0000 252.0000 0000000   0.0000 252.0000 14.60983543    12
CTC1_L_00316022-02
1 24632U 24236BY  26070.40835648  .00000000  00000+0  00000-0 0  9996
2 24632  75.0000 252.0000 0000000   0.0000 342.0000 14.60983543    13
CTC1_L_00316022-03
1 24633U 22355QD  26070.40835648  .00000000  00000+0  00000-0 0  9997
2 24633  75.0000 252.0000 0000000   0.0000  72.0000 14.60983543    14
CTC1_L_00316022-04
1 24634U 22500B   26070.40835648  .00000000  00000+0  00000-0 0  9990
2 24634  75.0000 252.0000 0000000   0.0000 162.0000 14.60983543    15
CTC1_L_00316023-01
1 24635U 25096QA  26070.40835648  .00000000  00000+0  00000-0 0  9994
2 24635  75.0000 264.0000 0000000   0.0000 264.0000 14.60983543    12
CTC1_L_00316023-02
1 24636U 22557UJ  26070.40835648  .00000000  00000+0  00000-0 0  9994
2 24636  75.0000 264.0000 0000000   0.0000 354.0000 14.60983543    13
CTC1_L_00316023-03
1 24637U 25051ZR  26070.40835648  .00000000  00000+0  00000-0 0  9997
2 24637  75.0000 264.0000 0000000   0.0000  84.0000 14.60983543    14
CTC1_L_00316023-04
1 24638U 24012SQ  26070.40835648  .00000000  00000+0  00000-0 0  9994
2 24638  75.0000 264.0000 0000000   0.0000 174.0000 14.60983543    15
CTC1_L_00316024-01
1 24639U 24222HP  26070.40835648  .00000000  00000+0  00000-0 0  9998
2 24639  75.0000 276.0000 0000000   0.0000 276.0000 14.60983543    12
CTC1_L_00316024-02
1 24640U 22197MB  26070.40835648  .00000000  00000+0  00000-0 0  9999
2 24640  75.0000 276.0000 0000000   0.0000   6.0000 14.60983543    15
CTC1_L_00316024-03
1 24641U 23160AC  26070.40835648  .00000000  00000+0  00000-0 0  9991
2 24641  75.0000 276.0000 0000000   0.0000  96.0000 14.60983543    15
CTC1_L_00316024-04
1 24642U 26012KW  26070.40835648  .00000000  00000+0  00000-0 0  9991
2 24642  75.0000 276.0000 0000000   0.0000 186.0000 14.60983543    16
CTC1_L_00316025-01
1 24643U 23526KQ  26070.40835648  .00000000  00000+0  00000-0 0  9999
2 24643  75.0000 288.0000 0000000   0.0000 288.0000 14.60983543    13
CTC1_L_00316025-02
1 24644U 24475VA  26070.40835648  .00000000  00000+0  00000-0 0  9994
2 24644  75.0000 288.0000 0000000   0.0000  18.0000 14.60983543    15
CTC1_L_00316025-03
1 24645U 26428UF  26070.40835648  .00000000  00000+0  00000-0 0  9995
2 24645  75.0000 288.0000 0000000   0.0000 108.0000 14.60983543    16
CTC1_L_00316025-04
1 24646U 24601GX  26070.40835648  .00000000  00000+0  00000-0 0  9997
2 24646  75.0000 288.0000 0000000   0.0000 198.0000 14.60983543    16
CTC1_L_00316026-01
1 24647U 26331TC  26070.40835648  .00000000  00000+0  00000-0 0  9990
2 24647  75.0000 300.0000 0000000   0.0000 300.0000 14.60983543    17
CTC1_L_00316026-02
1 24648U 22488YX  26070.40835648  .00000000  00000+0  00000-0 0  9990
2 24648  75.0000 300.0000 0000000   0.0000  30.0000 14.60983543    18
CTC1_L_00316026-03
1 24649U 26041BK  26070.40835648  .00000000  00000+0  00000-0 0  9990
2 24649  75.0000 300.0000 0000000   0.0000 120.0000 14.60983543    19
CTC1_L_00316026-04
1 24650U 24869UN  26070.40835648  .00000000  00000+0  00000-0 0  9998
2 24650  75.0000 300.0000 0000000   0.0000 210.0000 14.60983543    11
CTC1_L_00316027-01
1 24651U 25761ZQ  26070.40835648  .00000000  00000+0  00000-0 0  9991
2 24651  75.0000 312.0000 0000000   0.0000 312.0000 14.60983543    18
CTC1_L_00316027-02
1 24652U 25213S   26070.40835648  .00000000  00000+0  00000-0 0  9994
2 24652  75.0000 312.0000 0000000   0.0000  42.0000 14.60983543    19
CTC1_L_00316027-03
1 24653U 25281WB  26070.40835648  .00000000  00000+0  00000-0 0  9990
2 24653  75.0000 312.0000 0000000   0.0000 132.0000 14.60983543    10
CTC1_L_00316027-04
1 24654U 26280CZ  26070.40835648  .00000000  00000+0  00000-0 0  9991
2 24654  75.0000 312.0000 0000000   0.0000 222.0000 14.60983543    11
CTC1_L_00316028-01
1 24655U 26925Q   26070.40835648  .00000000  00000+0  00000-0 0  9998
2 24655  75.0000 324.0000 0000000   0.0000 324.0000 14.60983543    18
CTC1_L_00316028-02
1 24656U 23204TR  26070.40835648  .00000000  00000+0  00000-0 0  9996
2 24656  75.0000 324.0000 0000000   0.0000  54.0000 14.60983543    19
CTC1_L_00316028-03
1 24657U 22240OR  26070.40835648  .00000000  00000+0  00000-0 0  9996
2 24657  75.0000 324.0000 0000000   0.0000 144.0000 14.60983543    10
CTC1_L_00316028-04
1 24658U 25573CD  26070.40835648  .00000000  00000+0  00000-0 0  9999
2 24658  75.0000 324.0000 0000000   0.0000 234.0000 14.60983543    11
CTC1_L_00316029-01
1 24659U 25409PP  26070.40835648  .00000000  00000+0  00000-0 0  9998
2 24659  75.0000 336.0000 0000000   0.0000 336.0000 14.60983543    18
CTC1_L_00316029-02
1 24660U 25585DB  26070.40835648  .00000000  00000+0  00000-0 0  9995
2 24660  75.0000 336.0000 0000000   0.0000  66.0000 14.60983543    10
CTC1_L_00316029-03
1 24661U 25592M   26070.40835648  .00000000  00000+0  00000-0 0  9994
2 24661  75.0000 336.0000 0000000   0.0000 156.0000 14.60983543    11
CTC1_L_00316029-04
1 24662U 24355DX  26070.40835648  .00000000  00000+0  00000-0 0  9991
2 24662  75.0000 336.0000 0000000   0.0000 246.0000 14.60983543    12
CTC1_L_00316030-01
1 24663U 24174JX  26070.40835648  .00000000  00000+0  00000-0 0  9991
2 24663  75.0000 348.0000 0000000   0.0000 348.0000 14.60983543    19
CTC1_L_00316030-02
1 24664U 24608RV  26070.40835648  .00000000  00000+0  00000-0 0  9994
2 24664  75.0000 348.0000 0000000   0.0000  78.0000 14.60983543    10
CTC1_L_00316030-03
1 24665U 25670J   26070.40835648  .00000000  00000+0  00000-0 0  9995
2 24665  75.0000 348.0000 0000000   0.0000 168.0000 14.60983543    11
CTC1_L_00316030-04
1 24666U 22776BZ  26070.40835648  .00000000  00000+0  00000-0 0  9990
2 24666  75.0000 348.0000 0000000   0.0000 258.0000 14.60983543    12
